{
  "norad_id": 52680,
  "name": "STARLINK-3774",
  "history": [
    {
      "epoch": "2026-03-28T21:12:00.934560",
      "apogee_km": 540.6478438810291,
      "perigee_km": 538.9086799841798,
      "latitude_deg": 53.103016772603496,
      "longitude_deg": -107.19896159996279,
      "semi_major_axis_km": 6917.915261932604,
      "eccentricity": 0.0001257,
      "inclination_deg": 53.2177,
      "raan_deg": 57.7227,
      "arg_perigee_deg": 83.7905,
      "mean_anomaly_deg": 276.3231,
      "mean_motion_rev_day": 15.08828591
    },
    {
      "epoch": "2026-03-29T05:08:56.564448",
      "apogee_km": 540.6473631193703,
      "perigee_km": 538.8860648337923,
      "latitude_deg": 32.310731979045286,
      "longitude_deg": -75.40381727996282,
      "semi_major_axis_km": 6917.9037139765815,
      "eccentricity": 0.0001273,
      "inclination_deg": 53.2174,
      "raan_deg": 56.236,
      "arg_perigee_deg": 84.7482,
      "mean_anomaly_deg": 275.3655,
      "mean_motion_rev_day": 15.08832369
    }
  ]
}